IRIDIUM 171             
1 43929U 19002H   25330.83262554  .00000372  00000+0  12585-3 0  9992
2 43929  86.3971  78.4508 0002148 103.7755 256.3680 14.34219379359952
IRIDIUM 170             
1 43930U 19002J   25330.82530526  .00001498  00000+0  23376-3 0  9990
2 43930  86.6088  78.1701 0002312  90.4378 269.7104 14.72246972369483
IRIDIUM 167             
1 43931U 19002K   25330.82628651  .00000377  00000+0  12741-3 0  9997
2 43931  86.3963  78.1901 0001976 109.5029 250.6381 14.34220887359957
IRIDIUM 181             
1 56726U 23068S   25330.87263613  .00000161  00000+0  41754-4 0  9996
2 56726  86.4501 141.3526 0002644  94.1234 266.0270 14.43309824133258
IRIDIUM 177             
1 56727U 23068T   25330.78829005  .00001973  00000+0  25615-3 0  9999
2 56727  86.1971  64.9044 0002305  88.0460 272.1025 14.80232328136422
IRIDIUM 174             
1 56728U 23068U   25330.81294409  .00001584  00000+0  24741-3 0  9995
2 56728  86.6093  78.3026 0002390  89.2124 270.9367 14.72242864136248
IRIDIUM 178             
1 56729U 23068V   25330.84486599  .00000714  00000+0  90473-4 0  9992
2 56729  86.6521 109.9395 0002151  99.0857 261.0608 14.80226423136434
IRIDIUM 179             
1 56730U 23068W   25330.36627917  .00001828  00000+0  23701-3 0  9998
2 56730  86.6766 118.5126 0002411 104.4842 255.6647 14.80249074136360
